$$SOE
2460161.500000000, A.D. 2023-Aug-05 00:00:00.0000, 6.940106282529558E+07, 4.781465593775213E+08, 2.093243925404182E+07,
2460168.500000000, A.D. 2023-Aug-12 00:00:00.0000, 5.937261390147729E+07, 4.789133849578805E+08, 2.083052125912365E+07,
2460175.500000000, A.D. 2023-Aug-19 00:00:00.0000, 4.931864941881205E+07, 4.794738768698614E+08, 2.071962440887752E+07,
2460182.500000000, A.D. 2023-Aug-26 00:00:00.0000, 3.924341945282303E+07, 4.798270469342275E+08, 2.059976459224236E+07,
2460189.500000000, A.D. 2023-Sep-02 00:00:00.0000, 2.915121472025072E+07, 4.799719926195912E+08, 2.047096181191778E+07,
2460196.500000000, A.D. 2023-Sep-09 00:00:00.0000, 1.904636495452172E+07, 4.799078986334677E+08, 2.033324022323781E+07,
2460203.500000000, A.D. 2023-Sep-16 00:00:00.0000, 8.933237392317567E+06, 4.796340383232052E+08, 2.018662813983473E+07,
2460210.500000000, A.D. 2023-Sep-23 00:00:00.0000, -1.183764213370468E+06, 4.791497751710438E+08, 2.003115799132171E+07,
2460217.500000000, A.D. 2023-Sep-30 00:00:00.0000, -1.130020039390285E+07, 4.784545655722382E+08, 1.986686636144453E+07,
2460224.500000000, A.D. 2023-Oct-07 00:00:00.0000, -2.141159893244942E+07, 4.775479623507312E+08, 1.969379427812076E+07,
2460231.500000000, A.D. 2023-Oct-14 00:00:00.0000, -3.151345895864417E+07, 4.764296156938868E+08, 1.951198738924450E+07,
2460238.500000000, A.D. 2023-Oct-21 00:00:00.0000, -4.160125294370496E+07, 4.750992731065132E+08, 1.932149585934487E+07,
2460245.500000000, A.D. 2023-Oct-28 00:00:00.0000, -5.167042801965407E+07, 4.735567806434745E+08, 1.912237430249307E+07,
2460252.500000000, A.D. 2023-Nov-04 00:00:00.0000, -6.171640787088700E+07, 4.718020846466753E+08, 1.891468180308017E+07,
2460259.500000000, A.D. 2023-Nov-11 00:00:00.0000, -7.173459501950781E+07, 4.698352333813452E+08, 1.869848195914790E+07,
2460266.500000000, A.D. 2023-Nov-18 00:00:00.0000, -8.172037328454205E+07, 4.676563785019866E+08, 1.847384292291984E+07,
2460273.500000000, A.D. 2023-Nov-25 00:00:00.0000, -9.166911034247829E+07, 4.652657763656312E+08, 1.824083743380445E+07,
2460280.500000000, A.D. 2023-Dec-02 00:00:00.0000, -1.015761603616190E+08, 4.626637891774127E+08, 1.799954284054723E+07,
2460287.500000000, A.D. 2023-Dec-09 00:00:00.0000, -1.114368666326900E+08, 4.598508859070404E+08, 1.775004110074016E+07,
2460294.500000000, A.D. 2023-Dec-16 00:00:00.0000, -1.212465639074807E+08, 4.568276429868122E+08, 1.749241873238945E+07,
2460301.500000000, A.D. 2023-Dec-23 00:00:00.0000, -1.310005800955882E+08, 4.535947454766520E+08, 1.722676674163607E+07,
2460308.500000000, A.D. 2023-Dec-30 00:00:00.0000, -1.406942386572255E+08, 4.501529897435822E+08, 1.695318073497537E+07,
2460315.500000000, A.D. 2024-Jan-06 00:00:00.0000, -1.503228634604642E+08, 4.465032852912567E+08, 1.667176118510064E+07,
2460322.500000000, A.D. 2024-Jan-13 00:00:00.0000, -1.598817829269160E+08, 4.426466539253477E+08, 1.638261341127422E+07,
2460329.500000000, A.D. 2024-Jan-20 00:00:00.0000, -1.693663322419111E+08, 4.385842293345636E+08, 1.608584741374582E+07,
2460336.500000000, A.D. 2024-Jan-27 00:00:00.0000, -1.787718556561055E+08, 4.343172577370188E+08, 1.578157780111513E+07,
2460343.500000000, A.D. 2024-Feb-03 00:00:00.0000, -1.880937093040989E+08, 4.298470986393402E+08, 1.546992377199176E+07,
2460350.500000000, A.D. 2024-Feb-10 00:00:00.0000, -1.973272642604081E+08, 4.251752254133090E+08, 1.515100910143986E+07,
2460357.500000000, A.D. 2024-Feb-17 00:00:00.0000, -2.064679096917808E+08, 4.203032256946934E+08, 1.482496211993185E+07,
2460364.500000000, A.D. 2024-Feb-24 00:00:00.0000, -2.155110560671218E+08, 4.152328016162930E+08, 1.449191568255311E+07,
2460371.500000000, A.D. 2024-Mar-02 00:00:00.0000, -2.244521383923524E+08, 4.099657698400120E+08, 1.415200712296504E+07,
2460378.500000000, A.D. 2024-Mar-09 00:00:00.0000, -2.332866193276267E+08, 4.045040613223058E+08, 1.380537817412654E+07,
2460385.500000000, A.D. 2024-Mar-16 00:00:00.0000, -2.420099917876380E+08, 3.988497210072621E+08, 1.345217483553088E+07,
2460392.500000000, A.D. 2024-Mar-23 00:00:00.0000, -2.506177811249436E+08, 3.930049085536022E+08, 1.309254728699133E+07,
2460399.500000000, A.D. 2024-Mar-30 00:00:00.0000, -2.591055491338121E+08, 3.869719000673754E+08, 1.272665005220202E+07,
2460406.500000000, A.D. 2024-Apr-06 00:00:00.0000, -2.674688996126449E+08, 3.807530874707034E+08, 1.235464211324173E+07,
2460413.500000000, A.D. 2024-Apr-13 00:00:00.0000, -2.757034819279275E+08, 3.743509763379699E+08, 1.197668671873876E+07,
2460420.500000000, A.D. 2024-Apr-20 00:00:00.0000, -2.838049935289552E+08, 3.677681848733539E+08, 1.159295119181299E+07,
2460427.500000000, A.D. 2024-Apr-27 00:00:00.0000, -2.917691829263016E+08, 3.610074434680728E+08, 1.120360683098510E+07,
2460434.500000000, A.D. 2024-May-04 00:00:00.0000, -2.995918530404783E+08, 3.540715941326637E+08, 1.080882883853714E+07,
2460441.500000000, A.D. 2024-May-11 00:00:00.0000, -3.072688646769353E+08, 3.469635897007952E+08, 1.040879624626721E+07,
2460448.500000000, A.D. 2024-May-18 00:00:00.0000, -3.147961400401342E+08, 3.396864928249829E+08, 1.000369183306409E+07,
2460455.500000000, A.D. 2024-May-25 00:00:00.0000, -3.221696662566807E+08, 3.322434747563182E+08, 9.593702031671852E+06,
2460462.500000000, A.D. 2024-Jun-01 00:00:00.0000, -3.293854988422726E+08, 3.246378138503537E+08, 9.179016814733461E+06,
2460469.500000000, A.D. 2024-Jun-08 00:00:00.0000, -3.364397648606141E+08, 3.168728937759939E+08, 8.759829535953879E+06,
2460476.500000000, A.D. 2024-Jun-15 00:00:00.0000, -3.433286653693441E+08, 3.089522019724241E+08, 8.336336734630734E+06,
2460483.500000000, A.D. 2024-Jun-22 00:00:00.0000, -3.500484781534578E+08, 3.008793295297702E+08, 7.908738092106551E+06,
2460490.500000000, A.D. 2024-Jun-29 00:00:00.0000, -3.565955628634474E+08, 2.926579706750588E+08, 7.477236586154684E+06,
2460497.500000000, A.D. 2024-Jul-06 00:00:00.0000, -3.629663659057868E+08, 2.842919193948320E+08, 7.042038399026498E+06,
2460504.500000000, A.D. 2024-Jul-13 00:00:00.0000, -3.691574231279295E+08, 2.757850660180507E+08, 6.603352631579772E+06,
2460511.500000000, A.D. 2024-Jul-20 00:00:00.0000, -3.751653622775485E+08, 2.671413949082819E+08, 6.161391099698097E+06,
2460518.500000000, A.D. 2024-Jul-27 00:00:00.0000, -3.809869058857538E+08, 2.583649823075407E+08, 5.716368194862708E+06,
2460525.500000000, A.D. 2024-Aug-03 00:00:00.0000, -3.866188742944357E+08, 2.494599939577321E+08, 5.268500753396302E+06,
2460532.500000000, A.D. 2024-Aug-10 00:00:00.0000, -3.920581886564875E+08, 2.404306824960569E+08, 4.818007918971732E+06,
2460539.500000000, A.D. 2024-Aug-17 00:00:00.0000, -3.973018738575890E+08, 2.312813846484446E+08, 4.365110995858997E+06,
2460546.500000000, A.D. 2024-Aug-24 00:00:00.0000, -4.023470613279837E+08, 2.220165182028366E+08, 3.910033288450822E+06,
2460553.500000000, A.D. 2024-Aug-31 00:00:00.0000, -4.071909916241491E+08, 2.126405787058098E+08, 3.452999911309332E+06,
2460560.500000000, A.D. 2024-Sep-07 00:00:00.0000, -4.118310164094493E+08, 2.031581360138400E+08, 2.994237546439499E+06,
2460567.500000000, A.D. 2024-Sep-14 00:00:00.0000, -4.162645997427196E+08, 1.935738316993870E+08, 2.533974221322864E+06,
2460574.500000000, A.D. 2024-Sep-21 00:00:00.0000, -4.204893206988162E+08, 1.838923777284284E+08, 2.072439327477336E+06,
2460581.500000000, A.D. 2024-Sep-28 00:00:00.0000, -4.245028778049330E+08, 1.741185531871414E+08, 1.609863660426334E+06,
2460588.500000000, A.D. 2024-Oct-05 00:00:00.0000, -4.283030916169831E+08, 1.642571990651519E+08, 1.146479144832328E+06,
2460595.500000000, A.D. 2024-Oct-12 00:00:00.0000, -4.318879057899312E+08, 1.543132140789228E+08, 6.825185218006521E+05,
2460602.500000000, A.D. 2024-Oct-19 00:00:00.0000, -4.352553883896554E+08, 1.442915512682988E+08, 2.182151369847357E+05,
2460609.500000000, A.D. 2024-Oct-26 00:00:00.0000, -4.384037334762383E+08, 1.341972145707931E+08, -2.461972328999192E+05,
2460616.500000000, A.D. 2024-Nov-02 00:00:00.0000, -4.413312626978279E+08, 1.240352552316370E+08, -7.104845506023690E+05,
2460623.500000000, A.D. 2024-Nov-09 00:00:00.0000, -4.440364267947494E+08, 1.138107680764239E+08, -1.174412692718960E+06,
2460630.500000000, A.D. 2024-Nov-16 00:00:00.0000, -4.465178069846597E+08, 1.035288876527457E+08, -1.637747629924498E+06,
2460637.500000000, A.D. 2024-Nov-23 00:00:00.0000, -4.487741161789400E+08, 9.319478419724116E+07, -2.100255621063963E+06,
2460644.500000000, A.D. 2024-Nov-30 00:00:00.0000, -4.508041998194846E+08, 8.281365939190145E+07, -2.561703443305217E+06,
2460651.500000000, A.D. 2024-Dec-07 00:00:00.0000, -4.526070359140375E+08, 7.239074233680125E+07, -3.021858662023511E+06,
2460658.500000000, A.D. 2024-Dec-14 00:00:00.0000, -4.541817349565897E+08, 6.193128696949863E+07, -3.480489776795175E+06,
2460665.500000000, A.D. 2024-Dec-21 00:00:00.0000, -4.555275420507724E+08, 5.144056969641259E+07, -3.937366131894089E+06,
2460672.500000000, A.D. 2024-Dec-28 00:00:00.0000, -4.566438392645413E+08, 4.092388427612193E+07, -4.392258014383927E+06,
2460679.500000000, A.D. 2025-Jan-04 00:00:00.0000, -4.575301456175259E+08, 3.038653633881133E+07, -4.844936983204028E+06,
2460686.500000000, A.D. 2025-Jan-11 00:00:00.0000, -4.581861165197904E+08, 1.983383920790091E+07, -5.295176125836425E+06,
2460693.500000000, A.D. 2025-Jan-18 00:00:00.0000, -4.586115435790715E+08, 9.271110110419892E+06, -5.742750233084756E+06,
2460700.500000000, A.D. 2025-Jan-25 00:00:00.0000, -4.588063545346650E+08, -1.296333692005314E+06, -6.187435952693681E+06,
2460707.500000000, A.D. 2025-Feb-01 00:00:00.0000, -4.587706131297807E+08, -1.186317887476072E+07, -6.629011941159427E+06,
2460714.500000000, A.D. 2025-Feb-08 00:00:00.0000, -4.585045188651035E+08, -2.242412009816674E+07, -7.067259016966835E+06,
2460721.500000000, A.D. 2025-Feb-15 00:00:00.0000, -4.580084066062961E+08, -3.297386414544368E+07, -7.501960319079021E+06,
2460728.500000000, A.D. 2025-Feb-22 00:00:00.0000, -4.572827459483687E+08, -4.350713420850047E+07, -7.932901484646199E+06,
$$EOE